{"type": "FeatureCollection", "features": [ {"type": "Feature", "properties": {"norad_id": 30252, "name": "FENGYUN 1C DEB", "group": "fengyun-1c-debris", "lat": 10.317946011534335, "lon": 13.91997560344804, "alt_km": 908.9900246391144, "timestamp": "2025-12-26T21:25:53.285275+00:00", "meta": {"OBJECT_NAME": "FENGYUN 1C DEB", "OBJECT_ID": "1999-025XM", "EPOCH": "2025-12-26T15:07:55.398720", "MEAN_MOTION": 14.09732559, "ECCENTRICITY": 0.00664352, "INCLINATION": 98.7428, "RA_OF_ASC_NODE": 15.2704, "ARG_OF_PERICENTER": 202.0447, "MEAN_ANOMALY": 277.0353, "EPHEMERIS_TYPE": 0, "CLASSIFICATION_TYPE": "U", "NORAD_CAT_ID": 30252, "ELEMENT_SET_NO": 999, "REV_AT_EPOCH": 97161, "BSTAR": 0.00047590043, "MEAN_MOTION_DOT": 8.1e-06, "MEAN_MOTION_DDOT": 0}, "tle": {"line1": "1 30252U 99025XM  25360.63050230  .00000810  00000+0  47590-3 0  9998", "line2": "2 30252  98.7428  15.2704 0066435 202.0447 277.0353 14.09732559971610"}}, "geometry": {"type": "Point", "coordinates": [13.91997560344804, 10.317946011534335]}}, {"type": "Feature", "properties": {"norad_id": 30253, "name": "FENGYUN 1C DEB", "group": "fengyun-1c-debris", "lat": 70.12134708782717, "lon": -67.02666000552793, "alt_km": 1018.8296818604713, "timestamp": "2025-12-26T21:25:53.285285+00:00", "meta": {"OBJECT_NAME": "FENGYUN 1C DEB", "OBJECT_ID": "1999-025XN", "EPOCH": "2025-12-26T05:26:23.277120", "MEAN_MOTION": 13.73234485, "ECCENTRICITY": 0.02208466, "INCLINATION": 98.7513, "RA_OF_ASC_NODE": 87.1492, "ARG_OF_PERICENTER": 5.0387, "MEAN_ANOMALY": 48.1119, "EPHEMERIS_TYPE": 0, "CLASSIFICATION_TYPE": "U", "NORAD_CAT_ID": 30253, "ELEMENT_SET_NO": 999, "REV_AT_EPOCH": 94199, "BSTAR": 0.0018892868, "MEAN_MOTION_DOT": 2.047e-05, "MEAN_MOTION_DDOT": 0}, "tle": {"line1": "1 30253U 99025XN  25360.22665830  .00002047  00000+0  18893-2 0  9999", "line2": "2 30253  98.7513  87.1492 0220846   5.0387  48.1119 13.73234485941990"}}, "geometry": {"type": "Point", "coordinates": [-67.02666000552793, 70.12134708782717]}}, {"type": "Feature", "properties": {"norad_id": 30257, "name": "FENGYUN 1C DEB", "group": "fengyun-1c-debris", "lat": 9.628006041404506, "lon": -2.4356772097767783, "alt_km": 834.0097623370702, "timestamp": "2025-12-26T21:25:53.285295+00:00", "meta": {"OBJECT_NAME": "FENGYUN 1C DEB", "OBJECT_ID": "1999-025XS", "EPOCH": "2025-12-26T11:53:07.987776", "MEAN_MOTION": 14.09731105, "ECCENTRICITY": 0.00595607, "INCLINATION": 98.7499, "RA_OF_ASC_NODE": 358.6748, "ARG_OF_PERICENTER": 61.0206, "MEAN_ANOMALY": 91.9062, "EPHEMERIS_TYPE": 0, "CLASSIFICATION_TYPE": "U", "NORAD_CAT_ID": 30257, "ELEMENT_SET_NO": 999, "REV_AT_EPOCH": 97411, "BSTAR": 0.00010325324, "MEAN_MOTION_DOT": 1.42e-06, "MEAN_MOTION_DDOT": 0}, "tle": {"line1": "1 30257U 99025XS  25360.49523134  .00000142  00000+0  10325-3 0  9999", "line2": "2 30257  98.7499 358.6748 0059560  61.0206  91.9062 14.09731105974116"}}, "geometry": {"type": "Point", "coordinates": [-2.4356772097767783, 9.628006041404506]}}, {"type": "Feature", "properties": {"norad_id": 30259, "name": "FENGYUN 1C DEB", "group": "fengyun-1c-debris", "lat": 24.607659227061433, "lon": -150.82207104015424, "alt_km": 880.5828893636663, "timestamp": "2025-12-26T21:25:53.285305+00:00", "meta": {"OBJECT_NAME": "FENGYUN 1C DEB", "OBJECT_ID": "1999-025XU", "EPOCH": "2025-12-26T13:10:54.746400", "MEAN_MOTION": 14.51574057, "ECCENTRICITY": 0.02420648, "INCLINATION": 98.761, "RA_OF_ASC_NODE": 212.8695, "ARG_OF_PERICENTER": 226.2732, "MEAN_ANOMALY": 162.5786, "EPHEMERIS_TYPE": 0, "CLASSIFICATION_TYPE": "U", "NORAD_CAT_ID": 30259, "ELEMENT_SET_NO": 999, "REV_AT_EPOCH": 99675, "BSTAR": 0.00045080317, "MEAN_MOTION_DOT": 2.581e-05, "MEAN_MOTION_DDOT": 0}, "tle": {"line1": "1 30259U 99025XU  25360.54924475  .00002581  00000+0  45080-3 0  9995", "line2": "2 30259  98.7610 212.8695 0242064 226.2732 162.5786 14.51574057996757"}}, "geometry": {"type": "Point", "coordinates": [-150.82207104015424, 24.607659227061433]}}, {"type": "Feature", "properties": {"norad_id": 30263, "name": "FENGYUN 1C DEB", "group": "fengyun-1c-debris", "lat": 55.81557070647326, "lon": -50.827638383625654, "alt_km": 983.1408044275195, "timestamp": "2025-12-26T21:25:53.285316+00:00", "meta": {"OBJECT_NAME": "FENGYUN 1C DEB", "OBJECT_ID": "1999-025XY", "EPOCH": "2025-12-26T14:03:33.056928", "MEAN_MOTION": 14.015148, "ECCENTRICITY": 0.01446129, "INCLINATION": 98.9329, "RA_OF_ASC_NODE": 115.4821, "ARG_OF_PERICENTER": 321.6609, "MEAN_ANOMALY": 51.9016, "EPHEMERIS_TYPE": 0, "CLASSIFICATION_TYPE": "U", "NORAD_CAT_ID": 30263, "ELEMENT_SET_NO": 999, "REV_AT_EPOCH": 96219, "BSTAR": 0.001001835, "MEAN_MOTION_DOT": 1.615e-05, "MEAN_MOTION_DDOT": 0}, "tle": {"line1": "1 30263U 99025XY  25360.58579927  .00001615  00000+0  10018-2 0  9991", "line2": "2 30263  98.9329 115.4821 0144612 321.6609  51.9016 14.01514800962196"}}, "geometry": {"type": "Point", "coordinates": [-50.827638383625654, 55.81557070647326]}}, {"type": "Feature", "properties": {"norad_id": 30264, "name": "FENGYUN 1C DEB", "group": "fengyun-1c-debris", "lat": -80.1423042128194, "lon": 170.5700330834909, "alt_km": 799.957578188124, "timestamp": "2025-12-26T21:25:53.285326+00:00", "meta": {"OBJECT_NAME": "FENGYUN 1C DEB", "OBJECT_ID": "1999-025XZ", "EPOCH": "2025-12-26T03:22:51.053088", "MEAN_MOTION": 14.07692025, "ECCENTRICITY": 0.01083064, "INCLINATION": 98.9695, "RA_OF_ASC_NODE": 55.1779, "ARG_OF_PERICENTER": 249.7792, "MEAN_ANOMALY": 166.3784, "EPHEMERIS_TYPE": 0, "CLASSIFICATION_TYPE": "U", "NORAD_CAT_ID": 30264, "ELEMENT_SET_NO": 999, "REV_AT_EPOCH": 96746, "BSTAR": 0.0010784608, "MEAN_MOTION_DOT": 1.879e-05, "MEAN_MOTION_DDOT": 0}, "tle": {"line1": "1 30264U 99025XZ  25360.14086867  .00001879  00000+0  10785-2 0  9993", "line2": "2 30264  98.9695  55.1779 0108306 249.7792 166.3784 14.07692025967468"}}, "geometry": {"type": "Point", "coordinates": [170.5700330834909, -80.1423042128194]}}, {"type": "Feature", "properties": {"norad_id": 30265, "name": "FENGYUN 1C DEB", "group": "fengyun-1c-debris", "lat": 4.911873475688983, "lon": 109.87056552520806, "alt_km": 683.1204330551573, "timestamp": "2025-12-26T21:25:53.285336+00:00", "meta": {"OBJECT_NAME": "FENGYUN 1C DEB", "OBJECT_ID": "1999-025YA", "EPOCH": "2025-12-25T06:10:18.585984", "MEAN_MOTION": 14.5885906, "ECCENTRICITY": 0.0028061, "INCLINATION": 98.6637, "RA_OF_ASC_NODE": 108.916, "ARG_OF_PERICENTER": 333.3639, "MEAN_ANOMALY": 85.3061, "EPHEMERIS_TYPE": 0, "CLASSIFICATION_TYPE": "U", "NORAD_CAT_ID": 30265, "ELEMENT_SET_NO": 999, "REV_AT_EPOCH": 98584, "BSTAR": 0.0023901, "MEAN_MOTION_DOT": 0.00011213, "MEAN_MOTION_DDOT": 0}, "tle": {"line1": "1 30265U 99025YA  25359.25715956  .00011213  00000+0  23901-2 0  9999", "line2": "2 30265  98.6637 108.9160 0028061 333.3639  85.3061 14.58859060985842"}}, "geometry": {"type": "Point", "coordinates": [109.87056552520806, 4.911873475688983]}}, {"type": "Feature", "properties": {"norad_id": 30266, "name": "FENGYUN 1C DEB", "group": "fengyun-1c-debris", "lat": -42.08835173463745, "lon": 73.5631622343937, "alt_km": 826.0811908545038, "timestamp": "2025-12-26T21:25:53.285346+00:00", "meta": {"OBJECT_NAME": "FENGYUN 1C DEB", "OBJECT_ID": "1999-025YB", "EPOCH": "2025-12-26T03:06:17.262144", "MEAN_MOTION": 14.15143281, "ECCENTRICITY": 0.00816776, "INCLINATION": 99.0414, "RA_OF_ASC_NODE": 64.5209, "ARG_OF_PERICENTER": 27.7514, "MEAN_ANOMALY": 2.3899, "EPHEMERIS_TYPE": 0, "CLASSIFICATION_TYPE": "U", "NORAD_CAT_ID": 30266, "ELEMENT_SET_NO": 999, "REV_AT_EPOCH": 96979, "BSTAR": 0.0011885971, "MEAN_MOTION_DOT": 2.337e-05, "MEAN_MOTION_DDOT": 0}, "tle": {"line1": "1 30266U 99025YB  25360.12936646  .00002337  00000+0  11886-2 0  9995", "line2": "2 30266  99.0414  64.5209 0081677  27.7514   2.3899 14.15143281969798"}}, "geometry": {"type": "Point", "coordinates": [73.5631622343937, -42.08835173463745]}}, {"type": "Feature", "properties": {"norad_id": 30267, "name": "FENGYUN 1C DEB", "group": "fengyun-1c-debris", "lat": -52.0104854444538, "lon": 83.64583151896501, "alt_km": 830.0682795289704, "timestamp": "2025-12-26T21:25:53.285357+00:00", "meta": {"OBJECT_NAME": "FENGYUN 1C DEB", "OBJECT_ID": "1999-025YC", "EPOCH": "2025-12-26T11:33:40.114656", "MEAN_MOTION": 14.23698027, "ECCENTRICITY": 0.00600298, "INCLINATION": 98.8484, "RA_OF_ASC_NODE": 71.7271, "ARG_OF_PERICENTER": 204.236, "MEAN_ANOMALY": 155.5992, "EPHEMERIS_TYPE": 0, "CLASSIFICATION_TYPE": "U", "NORAD_CAT_ID": 30267, "ELEMENT_SET_NO": 999, "REV_AT_EPOCH": 97490, "BSTAR": 0.0015398638, "MEAN_MOTION_DOT": 3.537e-05, "MEAN_MOTION_DDOT": 0}, "tle": {"line1": "1 30267U 99025YC  25360.48171429  .00003537  00000+0  15399-2 0  9991", "line2": "2 30267  98.8484  71.7271 0060029 204.2360 155.5992 14.23698027974907"}}, "geometry": {"type": "Point", "coordinates": [83.64583151896501, -52.0104854444538]}}, {"type": "Feature", "properties": {"norad_id": 30270, "name": "FENGYUN 1C DEB", "group": "fengyun-1c-debris", "lat": 25.04134625708851, "lon": 10.075990328747762, "alt_km": 854.8782372366504, "timestamp": "2025-12-26T21:25:53.285367+00:00", "meta": {"OBJECT_NAME": "FENGYUN 1C DEB", "OBJECT_ID": "1999-025YF", "EPOCH": "2025-12-26T15:03:03.081600", "MEAN_MOTION": 14.11277338, "ECCENTRICITY": 0.00079551, "INCLINATION": 98.7017, "RA_OF_ASC_NODE": 13.9213, "ARG_OF_PERICENTER": 123.07, "MEAN_ANOMALY": 352.5086, "EPHEMERIS_TYPE": 0, "CLASSIFICATION_TYPE": "U", "NORAD_CAT_ID": 30270, "ELEMENT_SET_NO": 999, "REV_AT_EPOCH": 97557, "BSTAR": 0.00014100621, "MEAN_MOTION_DOT": 2.12e-06, "MEAN_MOTION_DDOT": 0}, "tle": {"line1": "1 30270U 99025YF  25360.62711900  .00000212  00000+0  14101-3 0  9993", "line2": "2 30270  98.7017  13.9213 0007955 123.0700 352.5086 14.11277338975573"}}, "geometry": {"type": "Point", "coordinates": [10.075990328747762, 25.04134625708851]}}]}